HST                     
1 20580U 90037B   23189.18124677  .00003939  00000+0  20457-3 0  9997
2 20580  28.4689 128.2945 0002383 243.6949 260.5368 15.13420247624919
